NORAD_CAT_ID,OBJECT_NAME,OBJECT_TYPE,EPOCH,MEAN_MOTION,ECCENTRICITY,INCLINATION,RA_OF_ASC_NODE,ARG_OF_PERICENTER,MEAN_ANOMALY,BSTAR,MEAN_MOTION_DOT,MEAN_MOTION_DDOT,TLE_LINE0,TLE_LINE1,TLE_LINE2,SEMIMAJOR_AXIS,PERIOD,APOGEE,PERIGEE,DECAYED
53867.0,STARLINK-4793,PAYLOAD,2024-05-18 21:19:34,15.08838164,0.0001052,53.2161,356.1448,77.809,282.302,0.00056878,8.775e-05,0.0,0 STARLINK-4793,1 53867U 22114BB  24139.88859237  .00008775  00000-0  56878-3 0  9992,2 53867  53.2161 356.1448 0001052  77.8090 282.3020 15.08838164 93103,6917.886,95.438,540.479,539.023,0.0
53867.0,STARLINK-4793,PAYLOAD,2024-05-19 00:30:20,15.0884466,0.0001167,53.2171,355.5495,77.9947,282.1176,0.00063509,9.835e-05,0.0,0 STARLINK-4793,1 53867U 22114BB  24140.02107291  .00009835  00000-0  63509-3 0  9993,2 53867  53.2171 355.5495 0001167  77.9947 282.1176 15.08844660 93667,6917.866,95.437,540.538,538.924,0.0
53867.0,STARLINK-4793,PAYLOAD,2024-05-19 21:10:22,15.08821443,0.000107,53.217,351.6866,115.8826,244.2277,-2.1861e-05,-6.35e-06,0.0,0 STARLINK-4793,1 53867U 22114BB  24140.88220372 -.00000635  00000-0 -21861-4 0  9990,2 53867  53.2170 351.6866 0001070 115.8826 244.2277 15.08821443 93256,6917.937,95.439,540.542,539.062,0.0
53867.0,STARLINK-4793,PAYLOAD,2024-05-20 14:39:36,15.0887293,7.57e-05,53.2169,348.4143,95.3859,264.7219,0.0015549,0.00024567,0.0,0 STARLINK-4793,1 53867U 22114BB  24141.61083808  .00024567  00000-0  15549-2 0  9995,2 53867  53.2169 348.4143 0000757  95.3859 264.7219 15.08872930 93907,6917.78,95.435,540.168,539.121,0.0
53867.0,STARLINK-4793,PAYLOAD,2024-05-20 19:25:45,15.08839619,0.0001791,53.2172,347.5223,125.9508,234.1651,-0.0010098,-0.00016323,0.0,0 STARLINK-4793,1 53867U 22114BB  24141.80955648 -.00016323  00000-0 -10098-2 0  9993,2 53867  53.2172 347.5223 0001791 125.9508 234.1651 15.08839619 93391,6917.882,95.438,540.986,538.508,0.0
53867.0,STARLINK-4793,PAYLOAD,2024-05-21 19:16:33,15.08840425,0.0001621,53.2172,343.0656,129.7363,230.3772,0.00137,0.00021583,0.0,0 STARLINK-4793,1 53867U 22114BB  24142.80316553  .00021583  00000-0  13700-2 0  9995,2 53867  53.2172 343.0656 0001621 129.7363 230.3772 15.08840425 93541,6917.879,95.438,540.865,538.623,0.0
53867.0,STARLINK-4793,PAYLOAD,2024-05-21 22:27:19,15.08847121,0.0001146,53.2166,342.4684,96.7361,263.3761,0.0014213,0.00022409,0.0,0 STARLINK-4793,1 53867U 22114BB  24142.93564642  .00022409  00000-0  14213-2 0  9991,2 53867  53.2166 342.4684 0001146  96.7361 263.3761 15.08847121 94108,6917.859,95.437,540.516,538.931,0.0
53867.0,STARLINK-4793,PAYLOAD,2024-05-22 20:42:42,15.08874517,0.0001063,53.2159,338.3016,81.4026,278.7087,0.0010019,0.00015708,0.0,0 STARLINK-4793,1 53867U 22114BB  24143.86299321  .00015708  00000-0  10019-2 0  9997,2 53867  53.2159 338.3016 0001063  81.4026 278.7087 15.08874517 93705,6917.775,95.435,540.375,538.905,0.0
53867.0,STARLINK-4793,PAYLOAD,2024-05-22 22:18:05,15.08876255,0.0001047,53.2159,338.0053,82.7589,277.3523,0.00098357,0.00015416,0.0,0 STARLINK-4793,1 53867U 22114BB  24143.92923169  .00015416  00000-0  98357-3 0  9996,2 53867  53.2159 338.0053 0001047  82.7589 277.3523 15.08876255 94255,6917.77,95.435,540.359,538.91,0.0
53867.0,STARLINK-4793,PAYLOAD,2024-05-23 18:58:06,15.08844005,0.000136,53.2196,334.1226,122.402,237.7103,0.00028426,4.239e-05,0.0,0 STARLINK-4793,1 53867U 22114BB  24144.79035474  .00004239  00000-0  28426-3 0  9996,2 53867  53.2196 334.1226 0001360 122.4020 237.7103 15.08844005 93841,6917.868,95.437,540.674,538.792,0.0
53867.0,STARLINK-4793,PAYLOAD,2024-05-24 18:48:59,15.08678269,0.0001284,53.2159,329.6921,352.9597,7.1377,-0.0034982,-0.0005529,0.0,0 STARLINK-4793,1 53867U 22114BB  24145.78401811 -.00055290  00000-0 -34982-2 0  9996,2 53867  53.2159 329.6921 0001284 352.9597   7.1377 15.08678269 93990,6918.375,95.448,541.128,539.351,0.0
53867.0,STARLINK-4793,PAYLOAD,2024-05-24 21:59:39,15.08896004,6.44e-05,53.2153,329.0909,44.4759,315.6285,0.001722,0.00027266,0.0,0 STARLINK-4793,1 53867U 22114BB  24145.91643104  .00027266  00000-0  17220-2 0  9990,2 53867  53.2153 329.0909 0000644  44.4759 315.6285 15.08896004 94553,6917.709,95.434,540.02,539.129,0.0
53867.0,STARLINK-4793,PAYLOAD,2024-05-25 02:45:50,15.08849293,0.0001402,53.2163,328.1929,109.2823,250.8321,0.00075843,0.00011806,0.0,0 STARLINK-4793,1 53867U 22114BB  24146.11517092  .00011806  00000-0  75843-3 0  9998,2 53867  53.2163 328.1929 0001402 109.2823 250.8321 15.08849293 94044,6917.852,95.437,540.687,538.747,0.0
53867.0,STARLINK-4793,PAYLOAD,2024-05-25 18:39:42,15.08837428,0.00012,53.2167,325.2246,104.3787,255.7339,0.00059515,9.196e-05,0.0,0 STARLINK-4793,1 53867U 22114BB  24146.77757783  .00009196  00000-0  59515-3 0  9990,2 53867  53.2167 325.2246 0001200 104.3787 255.7339 15.08837428 94140,6917.888,95.438,540.583,538.923,0.0
53867.0,STARLINK-4793,PAYLOAD,2024-05-26 12:08:56,15.08843619,0.0001307,53.2172,321.9508,83.3284,276.7857,0.00025991,3.851e-05,0.0,0 STARLINK-4793,1 53867U 22114BB  24147.50621426  .00003851  00000-0  25991-3 0  9999,2 53867  53.2172 321.9508 0001307  83.3284 276.7857 15.08843619 94794,6917.869,95.437,540.638,538.83,0.0
53867.0,STARLINK-4793,PAYLOAD,2024-05-26 18:30:29,15.08840167,0.0001175,53.2165,320.7586,84.1587,275.9539,0.00016735,2.377e-05,0.0,0 STARLINK-4793,1 53867U 22114BB  24147.77117437  .00002377  00000-0  16735-3 0  9998,2 53867  53.2165 320.7586 0001175  84.1587 275.9539 15.08840167 94295,6917.88,95.438,540.558,538.932,0.0
53867.0,STARLINK-4793,PAYLOAD,2024-05-27 04:02:38,15.09204569,0.0002348,53.2175,318.9879,265.8756,94.1968,0.0087187,0.00142714,0.0,0 STARLINK-4793,1 53867U 22114BB  24148.16849723  .00142714  00000-0  87187-2 0  9990,2 53867  53.2175 318.9879 0002348 265.8756  94.1968 15.09204569 94354,6916.766,95.415,540.255,537.007,0.0
53867.0,STARLINK-4793,PAYLOAD,2024-05-27 11:59:43,15.08842386,0.0001781,53.2178,317.4953,89.9063,270.2133,5.1562e-05,5.33e-06,0.0,0 STARLINK-4793,1 53867U 22114BB  24148.49981437  .00000533  00000-0  51562-4 0  9997,2 53867  53.2178 317.4953 0001781  89.9063 270.2133 15.08842386 94401,6917.873,95.437,540.97,538.506,0.0
53867.0,STARLINK-4793,PAYLOAD,2024-05-27 18:21:16,15.08838159,0.0001216,53.2175,316.2962,100.8443,259.2686,4.3342e-05,4.02e-06,0.0,0 STARLINK-4793,1 53867U 22114BB  24148.76477521  .00000402  00000-0  43342-4 0  9993,2 53867  53.2175 316.2962 0001216 100.8443 259.2686 15.08838159 94989,6917.886,95.438,540.592,538.91,0.0
53867.0,STARLINK-4793,PAYLOAD,2024-05-28 21:22:49,15.0884091,0.0001108,53.2169,311.2427,89.8103,270.3016,9.9061e-05,1.289e-05,0.0,0 STARLINK-4793,1 53867U 22114BB  24149.89085563  .00001289  00000-0  99061-4 0  9992,2 53867  53.2169 311.2427 0001108  89.8103 270.3016 15.08840910 95151,6917.878,95.437,540.509,538.976,0.0
53867.0,STARLINK-4793,PAYLOAD,2024-05-29 14:52:04,15.08838744,0.0001081,53.2164,307.9713,77.9761,282.1352,9.0684e-05,1.156e-05,0.0,0 STARLINK-4793,1 53867U 22114BB  24150.61949792  .00001156  00000-0  90684-4 0  9992,2 53867  53.2164 307.9713 0001081  77.9761 282.1352 15.08838744 95262,6917.884,95.438,540.497,539.001,0.0
53867.0,STARLINK-4793,PAYLOAD,2024-05-29 19:38:13,15.08841907,0.000116,53.2169,307.0799,86.2869,273.8256,0.00013626,1.882e-05,0.0,0 STARLINK-4793,1 53867U 22114BB  24150.81821712  .00001882  00000-0  13626-3 0  9991,2 53867  53.2169 307.0799 0001160  86.2869 273.8256 15.08841907 95290,6917.875,95.437,540.542,538.937,0.0
53867.0,STARLINK-4793,PAYLOAD,2024-05-30 14:42:51,15.08843539,0.0001269,53.2174,303.5114,80.7397,279.3739,0.00013712,1.895e-05,0.0,0 STARLINK-4793,1 53867U 22114BB  24151.61309750  .00001895  00000-0  13712-3 0  9993,2 53867  53.2174 303.5114 0001269  80.7397 279.3739 15.08843539 95417,6917.87,95.437,540.612,538.857,0.0
53867.0,STARLINK-4793,PAYLOAD,2024-05-30 17:53:37,15.0884682,0.0001325,53.2176,302.9169,80.8547,279.2595,0.00018379,2.639e-05,0.0,0 STARLINK-4793,1 53867U 22114BB  24151.74557602  .00002639  00000-0  18379-3 0  9999,2 53867  53.2176 302.9169 0001325  80.8547 279.2595 15.08846820 94899,6917.86,95.437,540.641,538.808,0.0
53867.0,STARLINK-4793,PAYLOAD,2024-05-31 14:33:38,15.08850872,0.0001327,53.2172,299.0505,81.6462,278.4681,0.00023987,3.533e-05,0.0,0 STARLINK-4793,1 53867U 22114BB  24152.60669191  .00003533  00000-0  23987-3 0  9997,2 53867  53.2172 299.0505 0001327  81.6462 278.4681 15.08850872 95566,6917.847,95.437,540.63,538.794,0.0
53867.0,STARLINK-4793,PAYLOAD,2024-05-31 16:09:01,15.08851055,0.0001301,53.2176,298.7536,82.3549,277.7591,0.00023683,3.484e-05,0.0,0 STARLINK-4793,1 53867U 22114BB  24152.67293162  .00003484  00000-0  23683-3 0  9993,2 53867  53.2176 298.7536 0001301  82.3549 277.7591 15.08851055 95573,6917.847,95.437,540.612,538.812,0.0
53867.0,STARLINK-4793,PAYLOAD,2024-06-01 03:16:42,15.08852841,0.0001259,53.2168,296.6727,89.4876,270.626,0.00019174,2.766e-05,0.0,0 STARLINK-4793,1 53867U 22114BB  24153.13660717  .00002766  00000-0  19174-3 0  9991,2 53867  53.2168 296.6727 0001259  89.4876 270.6260 15.08852841 95104,6917.841,95.437,540.577,538.835,0.0
53867.0,STARLINK-4793,PAYLOAD,2024-06-01 12:49:02,15.08831825,0.0001491,53.2155,294.8867,104.102,256.0138,-3.7242e-05,-8.8e-06,0.0,0 STARLINK-4793,1 53867U 22114BB  24153.53405907 -.00000880  00000-0 -37242-4 0  9997,2 53867  53.2155 294.8867 0001491 104.1020 256.0138 15.08831825 95166,6917.905,95.438,540.802,538.739,0.0
53867.0,STARLINK-4793,PAYLOAD,2024-06-01 14:24:25,15.08832116,0.000152,53.2155,294.5893,103.7458,256.3703,-9.4001e-05,-1.783e-05,0.0,0 STARLINK-4793,1 53867U 22114BB  24153.60029720 -.00001783  00000-0 -94001-4 0  9999,2 53867  53.2155 294.5893 0001520 103.7458 256.3703 15.08832116 95711,6917.904,95.438,540.821,538.718,0.0
53867.0,STARLINK-4793,PAYLOAD,2024-06-02 12:39:49,15.08839964,0.0001402,53.2164,290.4289,88.2606,271.8547,0.00031932,4.798e-05,0.0,0 STARLINK-4793,1 53867U 22114BB  24154.52766092  .00004798  00000-0  31932-3 0  9991,2 53867  53.2164 290.4289 0001402  88.2606 271.8547 15.08839964 95857,6917.88,95.438,540.715,538.776,0.0
